{"type":"FeatureCollection","features":[{"type":"Feature","geometry":{"type":"Point","coordinates":[12.3338572,45.4337096]},"properties":{"id":"v01","name":"Multisala Rossini","street":"Campo S. Fantin","civic":"1965","zip":"30124","city":"Venezia","website":"https://www.inlagunafilmfestival.com/","instagram":"https://www.instagram.com/rete.cinemainlaguna/","facebook":"https://www.facebook.com/retecinemainlaguna/","popup":"<strong>Multisala Rossini</strong><br/>Campo S. Fantin 1965, 30124 Venezia<br/><a href=\"https://www.inlagunafilmfestival.com/\" target=\"_blank\" rel=\"noopener\">inlagunafilmfestival.com</a>"}},{"type":"Feature","geometry":{"type":"Point","coordinates":[12.3279107,45.433439]},"properties":{"id":"v02","name":"Teatrino di Palazzo Grassi","street":"Campo San Samuele","civic":"3231","zip":"30124","city":"Venezia","website":"https://www.inlagunafilmfestival.com/","instagram":"https://www.instagram.com/rete.cinemainlaguna/","facebook":"https://www.facebook.com/retecinemainlaguna/","popup":"<strong>Teatrino di Palazzo Grassi</strong><br/>Campo San Samuele 3231, 30124 Venezia<br/><a href=\"https://www.inlagunafilmfestival.com/\" target=\"_blank\" rel=\"noopener\">inlagunafilmfestival.com</a>"}},{"type":"Feature","geometry":{"type":"Point","coordinates":[12.3277549,45.4295471]},"properties":{"id":"v03","name":"Consolato di Svizzera","street":"Campo Sant'Agnese","civic":"810","zip":"30123","city":"Venezia","website":"https://www.inlagunafilmfestival.com/","instagram":"https://www.instagram.com/rete.cinemainlaguna/","facebook":"https://www.facebook.com/retecinemainlaguna/","popup":"<strong>Consolato di Svizzera</strong><br/>Campo Sant&#39;Agnese 810, 30123 Venezia<br/><a href=\"https://www.inlagunafilmfestival.com/\" target=\"_blank\" rel=\"noopener\">inlagunafilmfestival.com</a>"}},{"type":"Feature","geometry":{"type":"Point","coordinates":[12.3300314,45.4408715]},"properties":{"id":"v04","name":"Casa del Cinema (Sala Pasinetti)","street":"Salizada San Stae","civic":"1990","zip":"30135","city":"Venezia","website":"https://www.inlagunafilmfestival.com/","instagram":"https://www.instagram.com/rete.cinemainlaguna/","facebook":"https://www.facebook.com/retecinemainlaguna/","popup":"<strong>Casa del Cinema (Sala Pasinetti)</strong><br/>Salizada San Stae 1990, 30135 Venezia<br/><a href=\"https://www.inlagunafilmfestival.com/\" target=\"_blank\" rel=\"noopener\">inlagunafilmfestival.com</a>"}},{"type":"Feature","geometry":{"type":"Point","coordinates":[12.3384561,45.4359216]},"properties":{"id":"v05","name":"PANORAMA","street":"Campiello S. Zulian","civic":"602A","zip":"30124","city":"Venezia","website":"https://www.inlagunafilmfestival.com/","instagram":"https://www.instagram.com/rete.cinemainlaguna/","facebook":"https://www.facebook.com/retecinemainlaguna/","popup":"<strong>PANORAMA</strong><br/>Campiello S. Zulian 602A, 30124 Venezia<br/><a href=\"https://www.inlagunafilmfestival.com/\" target=\"_blank\" rel=\"noopener\">inlagunafilmfestival.com</a>"}},{"type":"Feature","geometry":{"type":"Point","coordinates":[12.3387658,45.4431351]},"properties":{"id":"v06","name":"COMBO","street":"Campo dei Gesuiti","civic":"4878","zip":"30121","city":"Venezia","website":"https://www.inlagunafilmfestival.com/","instagram":"https://www.instagram.com/rete.cinemainlaguna/","facebook":"https://www.facebook.com/retecinemainlaguna/","popup":"<strong>COMBO</strong><br/>Campo dei Gesuiti 4878, 30121 Venezia<br/><a href=\"https://www.inlagunafilmfestival.com/\" target=\"_blank\" rel=\"noopener\">inlagunafilmfestival.com</a>"}},{"type":"Feature","geometry":{"type":"Point","coordinates":[12.320465,45.4372863]},"properties":{"id":"v07","name":"Fumetteria Super Zazà","street":"Santa Croce","civic":"270","zip":"30121","city":"Venezia","website":"https://www.inlagunafilmfestival.com/","instagram":"https://www.instagram.com/rete.cinemainlaguna/","facebook":"https://www.facebook.com/retecinemainlaguna/","popup":"<strong>Fumetteria Super Zazà</strong><br/>Santa Croce 270, 30121 Venezia<br/><a href=\"https://www.inlagunafilmfestival.com/\" target=\"_blank\" rel=\"noopener\">inlagunafilmfestival.com</a>"}},{"type":"Feature","geometry":{"type":"Point","coordinates":[12.3299483,45.4375108]},"properties":{"id":"v08","name":"Cinema Giorgione","street":"Cannaregio","civic":"4612","zip":"30121","city":"Venezia","website":"https://www.inlagunafilmfestival.com/","instagram":"https://www.instagram.com/rete.cinemainlaguna/","facebook":"https://www.facebook.com/retecinemainlaguna/","popup":"<strong>Cinema Giorgione</strong><br/>Cannaregio 4612, 30121 Venezia<br/><a href=\"https://www.inlagunafilmfestival.com/\" target=\"_blank\" rel=\"noopener\">inlagunafilmfestival.com</a>"}},{"type":"Feature","geometry":{"type":"Point","coordinates":[12.325107,45.436052]},"properties":{"id":"v09","name":"Estro - Vino e Cucina","street":"Calle Crosera (S. Pantalon)","civic":"3778","zip":"30123","city":"Venezia","website":"https://www.estrovenezia.com/","instagram":"https://www.instagram.com/estrovinoecucina/","facebook":"https://www.facebook.com/estrovinoecucina/","popup":"<strong>Estro - Vino e Cucina</strong><br/>Calle Crosera (S. Pantalon) 3778, 30123 Venezia<br/><a href=\"https://www.estrovenezia.com/\" target=\"_blank\" rel=\"noopener\">estrovenezia.com</a>"}},{"type":"Feature","geometry":{"type":"Point","coordinates":[12.32616,45.4301]},"properties":{"id":"v10","name":"Osteria Al Squero","street":"Fondamenta Nani","civic":"943/944","zip":"30123","city":"Venezia","website":"https://www.osterialsquero.it","instagram":"https://www.instagram.com/al_squero/","facebook":"https://m.facebook.com/profile.php?id=245839585508025","popup":"<strong>Osteria Al Squero</strong><br/>Fondamenta Nani 943/944, 30123 Venezia<br/><a href=\"https://www.osterialsquero.it\" target=\"_blank\" rel=\"noopener\">osterialsquero.it</a>"}},{"type":"Feature","geometry":{"type":"Point","coordinates":[12.3284787,45.4455597]},"properties":{"id":"v11","name":"Al Timon","street":"Fondamenta degli Ormesini","civic":"2754","zip":"30121","city":"Venezia","website":"http://www.altimon.it","instagram":"https://www.instagram.com/altimon/","facebook":"https://www.facebook.com/timonbragozzo/","popup":"<strong>Al Timon</strong><br/>Fondamenta degli Ormesini 2754, 30121 Venezia<br/><a href=\"http://www.altimon.it\" target=\"_blank\" rel=\"noopener\">altimon.it</a>"}},{"type":"Feature","geometry":{"type":"Point","coordinates":[12.32715,45.43605]},"properties":{"id":"v12","name":"Basegone (Basegò San Tomà)","street":"Campo San Tomà","civic":"2863","zip":"30125","city":"Venezia","website":"http://www.basego.it","instagram":"https://www.instagram.com/basegone_venezia/","facebook":"https://www.facebook.com/Basegone1/","popup":"<strong>Basegone (Basegò San Tomà)</strong><br/>Campo San Tomà 2863, 30125 Venezia<br/><a href=\"http://www.basego.it\" target=\"_blank\" rel=\"noopener\">basego.it</a>"}},{"type":"Feature","geometry":{"type":"Point","coordinates":[12.35308,45.43215]},"properties":{"id":"v13","name":"Nevodi","street":"Via Giuseppe Garibaldi","civic":"1533","zip":"30122","city":"Venezia","website":"https://www.nevodi.com/","instagram":"https://www.instagram.com/nevodi_ristorante/","facebook":"https://www.facebook.com/Nevodi/","popup":"<strong>Nevodi</strong><br/>Via Giuseppe Garibaldi 1533, 30122 Venezia<br/><a href=\"https://www.nevodi.com/\" target=\"_blank\" rel=\"noopener\">nevodi.com</a>"}}]}